C/2019 A9 (PANSTARRS),e,84.1926,278.3852,237.9602,39.78587,0.0039275,0.96404040,2.1306,01/19.0/2021,2000,g 15.0,4.0
# From MPC114606
C/2019 B1 (Africano),e,123.3637,290.4354,174.8457,146.1903,0.0005576,0.98907816,0.0000,03/19.7614/2019,2000,g 16.0,4.0
# From MPC115885
P/2019 B2 (Groeller),e,16.8395,176.2810,359.2790,3.864076,0.1297584,0.37323465,76.5286,01/19.0/2021,2000,g 14.5,4.0
# From MPC115885
C/2019 B3 (PANSTARRS),h,01/19.9799/2021,66.5387,358.4300,263.9031,1.002466,6.823630,2000,5.5,4.0
# From MPEC 2020-AA5
C/2019 C1,e,36.0247,212.3886,319.1904,754.1846,0.0000476,0.99127387,0.0000,05/05.6241/2020,2000,g 10.0,4.0
# From MPC118842
C/2019 D1 (Flewelling),e,34.0811,231.7167,70.5229,141.4228,0.0005860,0.98883643,0.0000,05/11.8782/2019,2000,g 13.0,4.0
# From MPC119997
C/2019 E3 (ATLAS),h,11/12.5535/2023,84.2920,347.2416,280.6111,1.003961,10.314939,2000,2.5,4.0
# From MPC119997
C/2019 F1 (ATLAS-Africano),h,06/22.7854/2021,54.1755,38.7260,251.1194,1.003669,3.595648,2000,5.5,4.0
# From MPC119997
C/2019 F2 (ATLAS),e,19.1999,175.6970,11.2875,16.72766,0.0144063,0.86624532,7.1716,01/19.0/2021,2000,g 12.0,4.0
# From MPEC 2020-AA5
A/2019 G2,e,159.2077,208.1511,82.6354,668.4903,0.0000570,0.99657304,0.0000,12/09.9966/2019,2000,g 16.5,2.0
# From MPC118094
A/2019 G4,h,09/16.0294/2018,138.3866,130.4642,287.8839,1.001517,5.858381,2000,13.0,2.0
# From MPC114607
P/2019 GG21 (PANSTARRS),e,6.0839,340.5784,208.5051,7.473186,0.0482442,0.47298540,29.8702,01/19.0/2021,2000,g 12.0,4.0
# From MPC115885
C/2019 H1 (NEOWISE),e,104.5711,269.1953,19.3213,234.9296,0.0002737,0.99214291,0.0000,04/27.8001/2019,2000,g 15.5,4.0
# From MPC118842
C/2019 J1 (Lemmon),e,24.5505,98.0907,167.7863,69.71487,0.0016932,0.96443311,1.1020,01/19.0/2021,2000,g 12.0,4.0
# From MPC115885
C/2019 J2 (Palomar),e,105.1514,25.4796,98.7151,674.8375,0.0000562,0.99744047,0.0000,07/19.7038/2019,2000,g 13.0,4.0
# From MPC117071
C/2019 J3 (ATLAS),h,08/01.9542/2019,131.4118,270.5253,16.5826,1.000243,2.374266,2000,13.5,4.0
# From MPC117071
C/2019 JU6 (ATLAS),e,148.3037,21.7430,94.9042,337.6397,0.0001589,0.99394057,0.0000,05/31.8938/2019,2000,g 14.5,4.0
# From MPC119997
C/2019 K1 (ATLAS),h,02/12.9857/2020,87.1423,73.3774,265.7127,1.000028,2.012669,2000,10.0,4.0
# From MPC119997
C/2019 K4 (Ye),e,105.3021,180.1626,139.7736,1536,0.0000164,0.99852899,0.0000,06/16.3070/2019,2000,g 12.5,4.0
# From MPC119997
C/2019 K5 (Young),e,15.3151,177.1620,174.9691,157.6808,0.0004978,0.98709124,0.0000,06/22.8650/2019,2000,g 13.0,4.0
# From MPC117071
A/2019 K6,e,132.3779,42.9435,187.6299,1686,0.0000142,0.99766975,0.0000,05/20.2453/2020,2000,g 13.6,2.0
# From MPC118095
C/2019 K7 (Smith),e,103.5399,307.9297,27.3103,39900,0.0000001,0.99988784,0.0000,06/16.9873/2020,2000,g  6.2,4.0
# From MPC119997
C/2019 K8 (ATLAS),e,93.2210,291.0450,85.3725,2297,0.0000090,0.99860928,0.0000,07/21.3835/2019,2000,g 11.5,4.0
# From MPC118095
C/2019 L1 (PANSTARRS),e,9.9926,254.4123,49.9557,9.835863,0.0319511,0.70604611,16.8265,01/19.0/2021,2000,g 13.5,4.0
# From MPC115886
C/2019 L2 (NEOWISE),e,152.1827,12.5805,18.7456,24.85037,0.0079562,0.93479552,5.2368,01/19.0/2021,2000,g 16.0,4.0
# From MPC119997
C/2019 L3 (ATLAS),h,01/09.6861/2022,48.3660,290.7857,171.6329,1.001005,3.554028,2000,4.5,4.0
# From MPC118095
C/2019 LB7 (Kleyna),e,164.2909,3.8891,336.4865,34.82527,0.0047958,0.92868091,3.1845,01/19.0/2021,2000,g 17.0,4.0
# From MPC118843
P/2019 M2 (ATLAS),e,12.2821,307.5962,332.5666,3.026668,0.1871789,0.64833807,107.8810,01/19.0/2021,2000,g 21.2,4.0
# From MPC118095
C/2019 M3 (ATLAS),h,01/02.6968/2019,99.4652,154.9009,87.9288,1.001258,2.418891,2000,12.2,4.0
# From MPC119997
C/2019 N1 (ATLAS),e,82.4277,13.5730,193.4473,29520,0.0000002,0.99994226,0.0000,12/01.7908/2020,2000,g  7.5,4.0
# From MPEC 2020-AA5
A/2019 O2,e,93.2865,48.3160,129.6835,57.36313,0.0022686,0.83123504,358.1646,01/19.0/2021,2000,g  9.5,2.0
# From MPC118843
A/2019 O3,h,03/08.1145/2021,89.8126,300.3792,60.0604,1.002217,8.818446,2000,10.0,2.0
# From MPC117072
A/2019 O4,e,115.0863,354.9175,61.8306,32.85828,0.0052328,0.88907266,1.7999,01/19.0/2021,2000,g 15.5,2.0
# From MPEC 2020-AA5
A/2019 Q1,h,07/20.1452/2020,155.7229,42.3601,55.9958,1.000974,4.997012,2000,12.5,2.0
# From MPC117072
A/2019 Q2,e,159.0202,188.0407,176.2954,57.26569,0.0022744,0.97805275,0.0000,07/22.2885/2019,2000,g 18.0,2.0
# From MPC117072
C/2019 Q3 (PANSTARRS),h,08/21.3560/2018,65.5270,151.3237,152.6855,1.004105,7.253598,2000,8.5,4.0
# From MPC117072
P/2019 S2 (PANSTARRS),e,10.4729,93.1300,216.8657,4.736299,0.0956193,0.20678200,66.6851,01/19.0/2021,2000,g 13.5,4.0
# From MPC118096
P/2019 S3 (PANSTARRS),e,8.6937,150.1604,212.9810,3.414743,0.1561950,0.47093218,79.9389,01/19.0/2021,2000,g 18.3,4.0
# From MPEC 2020-AA5
A/2019 S4,e,92.0242,63.1636,71.3648,233.6069,0.0002760,0.98526654,0.0000,04/07.9704/2020,2000,g 14.5,2.0
# From MPC118843
A/2019 T1,e,120.8697,6.9538,91.0308,38.25357,0.0041658,0.88807351,0.0197,01/19.0/2021,2000,g 13.0,2.0
# From MPEC 2020-AA5
A/2019 T2,e,111.4851,155.6417,239.3859,2322,0.0000088,0.99886035,0.0000,04/22.2608/2021,2000,g 12.5,2.0
# From MPC119998
C/2019 T3 (ATLAS),e,121.8624,139.5206,112.2759,4153,0.0000037,0.99856836,0.0000,03/02.6680/2021,2000,g  6.8,4.0
# From MPC119998
C/2019 T4 (ATLAS),e,53.6184,199.9558,351.2158,998.5123,0.0000312,0.99575145,0.0000,06/09.3724/2022,2000,g  5.0,4.0
# From MPC119998
P/2019 T5 (ATLAS),e,33.4271,247.6854,189.5936,8.007705,0.0434953,0.80917229,23.3521,01/19.0/2021,2000,g 15.0,4.0
# From MPC119998
P/2019 T6 (PANSTARRS),e,18.6948,71.3020,328.9065,5.434199,0.0778038,0.62248857,34.0949,01/19.0/2021,2000,g 15.5,4.0
# From MPC118096
P/2019 U4 (PANSTARRS),e,11.6916,200.0211,180.9683,3.520508,0.1492093,0.47546980,72.9018,01/19.0/2021,2000,g 19.0,4.0
# From MPC118844
A/2019 U5,h,03/30.1995/2023,113.5250,2.6800,181.5932,1.000838,3.621235,2000,10.0,2.0
# From MPEC 2020-AA5
C/2019 U6,e,60.9997,235.7002,329.6601,419.8443,0.0001146,0.99782245,0.0000,06/18.8165/2020,2000,g 14.5,2.0
# From MPC119998
C/2019 V1 (Borisov),e,61.8624,83.2018,51.1924,1965,0.0000113,0.99842346,0.0000,07/16.5351/2020,2000,g 11.0,4.0
# From MPC119998
P/2019 V2 (Groeller),e,11.8055,189.1608,336.3433,7.512287,0.0478681,0.33222019,4.2243,01/19.0/2021,2000,g 10.0,4.0
# From MPC119998
P/2019 W1 (PANSTARRS),e,23.4609,35.4027,18.7058,4.550329,0.1015406,0.26626368,63.1828,01/19.0/2021,2000,g 12.9,4.0
# From MPC119998
P/2019 X1 (Pruyne),e,10.2447,43.7010,36.5930,6.177287,0.0641959,0.30349220,35.2634,01/19.0/2021,2000,g 10.4,4.0
# From MPC119999
C/2019 Y1 (ATLAS),e,73.2585,31.5188,57.9731,85.96807,0.0012365,0.99032722,0.0000,03/15.5885/2020,2000,g 13.7,4.0
# From MPEC 2020-L06
C/2019 Y4 (ATLAS),e,45.3827,120.5721,177.3113,546.8406,0.0000771,0.99953740,0.0000,05/31.0592/2020,2000,g 11.8,6.0
# From MPEC 2020-L06
C/2019 Y4-A (ATLAS),h,05/31.0423/2020,45.8245,120.9284,177.2538,1.001352,0.251102,2000,11.6,6.0
# From MPEC 2020-L06
C/2019 Y4-B (ATLAS),e,45.4590,120.6242,177.3871,1128,0.0000260,0.99977605,0.0000,05/31.0211/2020,2000,g 12.8,6.0
# From MPEC 2020-L06
C/2019 Y4-C (ATLAS),h,05/31.0005/2020,45.6067,120.6541,177.2872,1.002069,0.252152,2000,12.7,6.0
# From MPEC 2020-L06
C/2019 Y4-D (ATLAS),e,45.6481,121.0347,177.4260,67.40960,0.0017808,0.99626834,0.0000,05/31.1178/2020,2000,g 12.5,6.0
# From MPEC 2020-K19
A/2020 A1,e,149.0350,119.2916,302.5990,24.64950,0.0080536,0.93227136,3.3295,01/19.0/2021,2000,g 18.0,2.0
# From MPEC 2020-L06
C/2020 A2 (Iwamoto),e,120.7466,286.3784,68.2097,1281,0.0000215,0.99923650,0.0000,01/08.3535/2020,2000,g 13.5,4.0
# From MPEC 2020-L06
C/2020 A3 (ATLAS),h,07/29.6959/2019,146.7767,120.3775,271.1693,1.025192,5.839480,2000,8.0,4.0
# From MPEC 2020-L06
C/2020 B3 (Rankin),e,20.7057,185.8281,325.0726,1449,0.0000179,0.99769250,0.0000,10/19.7695/2019,2000,g 13.0,4.0
# From MPEC 2020-L06
C/2020 F2 (ATLAS),h,07/16.6028/2022,163.5764,250.2521,48.3743,1.002871,8.816852,2000,4.5,4.0
# From MPEC 2020-L06
C/2020 F3 (NEOWISE),e,128.9305,61.0130,37.2674,361.2232,0.0001436,0.99918416,0.0000,07/03.6798/2020,2000,g 12.5,3.2
# From MPEC 2020-L06
C/2020 F5 (MASTER),h,03/24.0122/2021,51.7029,350.6217,311.0299,1.002459,4.326716,2000,6.5,3.2
# From MPEC 2020-L06
C/2020 F6 (PANSTARRS),e,174.5818,207.8829,344.6056,386.1854,0.0001299,0.99090824,0.0000,04/11.6355/2020,2000,g 14.5,2.8
# From MPEC 2020-L06
A/2020 F7,e,93.9527,321.8865,227.9851,767.1766,0.0000464,0.99305012,0.0000,11/14.1042/2021,2000,g 12.0,2.0
# From MPEC 2020-KB7
C/2020 F8 (SWAN),e,110.7896,260.0058,68.2183,273.6182,0.0002178,0.99842729,0.0000,05/27.5700/2020,2000,g 10.0,4.0
# From MPEC 2020-L06
P/2020 G1 (Pimentel),e,18.4763,240.0935,207.6626,3.611157,0.1436265,0.85989841,44.1802,01/19.0/2021,2000,g 17.0,4.0
# From MPEC 2020-L06
C/2020 H2 (Pruyne),e,125.0417,277.6376,26.7009,187.4135,0.0003842,0.99555157,0.0000,04/27.5981/2020,2000,g 18.0,4.0
# From MPEC 2020-HM1
C/2020 H3 (Wierzchos),p,06/05.7162/2020,62.5292,30.4456,2.300288,270.6227,2000,13.5,4.0
# From MPEC 2020-L06
C/2020 H4 (Leonard),e,84.5150,307.7369,117.6103,48.18274,0.0029469,0.98075702,0.0000,08/29.5182/2020,2000,g 15.0,3.2
# From MPEC 2020-L06
C/2020 H5 (Robinson),e,70.2528,210.5976,325.0650,1070,0.0000281,0.99124765,0.0000,11/14.8780/2020,2000,g  5.0,4.0
# From MPEC 2020-L06
C/2020 H6 (ATLAS),h,09/30.9622/2021,79.9665,213.6980,20.3153,1.000883,4.704699,2000,8.0,3.2
# From MPEC 2020-KB7
C/2020 H7 (Lemmon),e,135.9235,323.5194,82.6780,1405,0.0000187,0.99685380,0.0000,06/02.9510/2020,2000,g 11.0,4.0
# From MPEC 2020-KB7
C/2020 H8 (PANSTARRS),p,06/06.7207/2020,99.7116,129.2192,4.678446,68.3225,2000,10.5,4.0
# From MPEC 2020-L06
A/2020 H9,e,137.8723,213.1221,312.8887,530.6772,0.0000806,0.99513972,0.0000,12/21.3532/2019,2000,g 18.0,2.0
# From MPEC 2020-L06
C/2020 J1 (SONEAR),e,142.2931,226.5914,341.7250,480.6818,0.0000935,0.99300997,0.0000,04/19.3668/2021,2000,g  8.5,3.2
# From MPEC 2020-L06
C/2020 K1 (PANSTARRS),h,05/08.0841/2023,89.6532,94.3646,213.9148,1.000826,3.074129,2000,5.5,4.0
# From MPEC 2020-KF5
